start=new Date('2022-12-12T00:00:00.000Z').valueOf();
sats=[{"LAUNCH_DATE":"2019-11-11","EPOCH":"2022-12-11T18:22:23.831040","MEAN_MOTION_DDOT":"0.0000000000000","BSTAR":"0.00028932000000","GP_ID":"220093748","MEAN_ELEMENT_THEORY":"SGP4","DECAY_DATE":null,"FILE":"3691993","SEMIMAJOR_AXIS":"6925.340","CLASSIFICATION_TYPE":"U","OBJECT_TYPE":"PAYLOAD","COUNTRY_CODE":"US","PERIOD":"95.592","MEAN_MOTION_DOT":"0.00004031","NORAD_CAT_ID":"44713","RA_OF_ASC_NODE":"101.4760","MEAN_ANOMALY":"301.6534","ARG_OF_PERICENTER":"58.4594","REV_AT_EPOCH":"17030","RCS_SIZE":"LARGE","TIME_SYSTEM":"UTC","OBJECT_ID":"2019-074A","TLE_LINE1":"1 44713U 19074A   22345.76555360  .00004031  00000-0  28932-3 0  9998","APOAPSIS":"548.197","ELEMENT_SET_NO":"999","MEAN_MOTION":"15.06402737","EPHEMERIS_TYPE":"0","TLE_LINE2":"2 44713  53.0546 101.4760 0001432  58.4594 301.6534 15.06402737170306","SITE":"AFETR","OBJECT_NAME":"STARLINK-1007","PERIAPSIS":"546.213","ECCENTRICITY":"0.00014320","CENTER_NAME":"EARTH","INCLINATION":"53.0546","REF_FRAME":"TEME"},{"TLE_LINE2":"2 44714  53.0546 102.1534 0001346  82.6493 277.4649 15.06396849170285","SITE":"AFETR","EPHEMERIS_TYPE":"0","MEAN_MOTION":"15.06396849","ELEMENT_SET_NO":"999","APOAPSIS":"548.155","TLE_LINE1":"1 44714U 19074B   22345.61169244  .00001299  00000-0  10607-3 0  9998","OBJECT_ID":"2019-074B","TIME_SYSTEM":"UTC","REF_FRAME":"TEME","INCLINATION":"53.0546","CENTER_NAME":"EARTH","PERIAPSIS":"546.291","ECCENTRICITY":"0.00013460","OBJECT_NAME":"STARLINK-1008","OBJECT_TYPE":"PAYLOAD","SEMIMAJOR_AXIS":"6925.358","CLASSIFICATION_TYPE":"U","FILE":"3691993","DECAY_DATE":null,"MEAN_ELEMENT_THEORY":"SGP4","GP_ID":"220093499","BSTAR":"0.00010607000000","LAUNCH_DATE":"2019-11-11","MEAN_MOTION_DDOT":"0.0000000000000","EPOCH":"2022-12-11T14:40:50.226816","RCS_SIZE":"LARGE","REV_AT_EPOCH":"17028","ARG_OF_PERICENTER":"82.6493","MEAN_ANOMALY":"277.4649","RA_OF_ASC_NODE":"102.1534","NORAD_CAT_ID":"44714","MEAN_MOTION_DOT":"0.00001299","PERIOD":"95.592","COUNTRY_CODE":"US"},{"RA_OF_ASC_NODE":"101.3226","NORAD_CAT_ID":"44715","MEAN_MOTION_DOT":"0.00007256","COUNTRY_CODE":"US","PERIOD":"95.594","RCS_SIZE":"LARGE","REV_AT_EPOCH":"17030","ARG_OF_PERICENTER":"66.6273","MEAN_ANOMALY":"293.4885","GP_ID":"220094750","MEAN_MOTION_DDOT":"0.0000000000000","LAUNCH_DATE":"2019-11-11","EPOCH":"2022-12-11T19:11:32.539488","BSTAR":"0.00050583000000","OBJECT_TYPE":"PAYLOAD","SEMIMAJOR_AXIS":"6925.424","CLASSIFICATION_TYPE":"U","FILE":"3691993","DECAY_DATE":null,"MEAN_ELEMENT_THEORY":"SGP4","ECCENTRICITY":"0.00016120","PERIAPSIS":"546.172","OBJECT_NAME":"STARLINK-1009","REF_FRAME":"TEME","INCLINATION":"53.0554","CENTER_NAME":"EARTH","TLE_LINE1":"1 44715U 19074C   22345.79968217  .00007256  00000-0  50583-3 0  9991","OBJECT_ID":"2019-074C","TIME_SYSTEM":"UTC","SITE":"AFETR","TLE_LINE2":"2 44715  53.0554 101.3226 0001612  66.6273 293.4885 15.06375474170302","EPHEMERIS_TYPE":"0","MEAN_MOTION":"15.06375474","ELEMENT_SET_NO":"999","APOAPSIS":"548.405"},{"EPHEMERIS_TYPE":"0","APOAPSIS":"548.701","ELEMENT_SET_NO":"999","MEAN_MOTION":"15.06399861","SITE":"AFETR","TLE_LINE2":"2 44716  53.0547 101.5323 0002147  42.9995 317.1162 15.06399861170282","TLE_LINE1":"1 44716U 19074D   22345.75175799  .00005991  00000-0  42074-3 0  9993","TIME_SYSTEM":"UTC","OBJECT_ID":"2019-074D","CENTER_NAME":"EARTH","INCLINATION":"53.0547","REF_FRAME":"TEME","OBJECT_NAME":"STARLINK-1010","PERIAPSIS":"545.727","ECCENTRICITY":"0.00021470","DECAY_DATE":null,"FILE":"3691993","MEAN_ELEMENT_THEORY":"SGP4","OBJECT_TYPE":"PAYLOAD","CLASSIFICATION_TYPE":"U","SEMIMAJOR_AXIS":"6925.349","GP_ID":"220094501","LAUNCH_DATE":"2019-11-11","BSTAR":"0.00042074000000","MEAN_MOTION_DDOT":"0.0000000000000","EPOCH":"2022-12-11T18:02:31.890336","MEAN_ANOMALY":"317.1162","RCS_SIZE":"LARGE","REV_AT_EPOCH":"17028","ARG_OF_PERICENTER":"42.9995","NORAD_CAT_ID":"44716","MEAN_MOTION_DOT":"0.00005991","PERIOD":"95.592","COUNTRY_CODE":"US","RA_OF_ASC_NODE":"101.5323"},{"GP_ID":"220093249","BSTAR":"0.00009690300000","LAUNCH_DATE":"2019-11-11","MEAN_MOTION_DDOT":"0.0000000000000","EPOCH":"2022-12-11T19:35:24.089856","DECAY_DATE":null,"FILE":"3691993","MEAN_ELEMENT_THEORY":"SGP4","OBJECT_TYPE":"PAYLOAD","CLASSIFICATION_TYPE":"U","SEMIMAJOR_AXIS":"6925.348","MEAN_MOTION_DOT":"0.00001162","NORAD_CAT_ID":"44717","PERIOD":"95.592","COUNTRY_CODE":"US","RA_OF_ASC_NODE":"121.2393","MEAN_ANOMALY":"295.4910","RCS_SIZE":"LARGE","ARG_OF_PERICENTER":"64.6259","REV_AT_EPOCH":"17003","TLE_LINE1":"1 44717U 19074E   22345.81625104  .00001162  00000-0  96903-4 0  9998","TIME_SYSTEM":"UTC","OBJECT_ID":"2019-074E","EPHEMERIS_TYPE":"0","APOAPSIS":"548.421","ELEMENT_SET_NO":"999","MEAN_MOTION":"15.06400243","TLE_LINE2":"2 44717  53.0561 121.2393 0001744  64.6259 295.4910 15.06400243170030","SITE":"AFETR","OBJECT_NAME":"STARLINK-1011","PERIAPSIS":"546.005","ECCENTRICITY":"0.00017440","CENTER_NAME":"EARTH","INCLINATION":"53.0561","REF_FRAME":"TEME"},{"EPHEMERIS_TYPE":"0","MEAN_MOTION":"15.06394630","ELEMENT_SET_NO":"999","APOAPSIS":"548.213","TLE_LINE2":"2 44718  53.0548 101.6644 0001420  59.3418 300.7711 15.06394630170295","SITE":"AFETR","TLE_LINE1":"1 44718U 19074F   22345.72226763  .00002838  00000-0  20940-3 0  9995","OBJECT_ID":"2019-074F","TIME_SYSTEM":"UTC","CENTER_NAME":"EARTH","REF_FRAME":"TEME","INCLINATION":"53.0548","OBJECT_NAME":"STARLINK-1012","PERIAPSIS":"546.247","ECCENTRICITY":"0.00014200","FILE":"3691993","DECAY_DATE":null,"MEAN_ELEMENT_THEORY":"SGP4","OBJECT_TYPE":"PAYLOAD","CLASSIFICATION_TYPE":"U","SEMIMAJOR_AXIS":"6925.365","GP_ID":"220093999","LAUNCH_DATE":"2019-11-11","EPOCH":"2022-12-11T17:20:03.923232","MEAN_MOTION_DDOT":"0.0000000000000","BSTAR":"0.00020940000000","MEAN_ANOMALY":"300.7711","RCS_SIZE":"LARGE","ARG_OF_PERICENTER":"59.3418","REV_AT_EPOCH":"17029","MEAN_MOTION_DOT":"0.00002838","NORAD_CAT_ID":"44718","PERIOD":"95.592","COUNTRY_CODE":"US","RA_OF_ASC_NODE":"101.6644"},{"CENTER_NAME":"EARTH","REF_FRAME":"TEME","INCLINATION":"53.0570","OBJECT_NAME":"STARLINK-1013","PERIAPSIS":"546.333","ECCENTRICITY":"0.00012710","MEAN_MOTION":"15.06400143","APOAPSIS":"548.093","ELEMENT_SET_NO":"999","EPHEMERIS_TYPE":"0","SITE":"AFETR","TLE_LINE2":"2 44719  53.0570 101.3330 0001271  81.9970 278.1163 15.06400143171431","OBJECT_ID":"2019-074G","TIME_SYSTEM":"UTC","TLE_LINE1":"1 44719U 19074G   22345.79598392  .00003141  00000-0  22969-3 0  9994","MEAN_ANOMALY":"278.1163","REV_AT_EPOCH":"17143","ARG_OF_PERICENTER":"81.9970","RCS_SIZE":"LARGE","COUNTRY_CODE":"US","PERIOD":"95.592","MEAN_MOTION_DOT":"0.00003141","NORAD_CAT_ID":"44719","RA_OF_ASC_NODE":"101.3330","MEAN_ELEMENT_THEORY":"SGP4","FILE":"3691993","DECAY_DATE":null,"CLASSIFICATION_TYPE":"U","SEMIMAJOR_AXIS":"6925.348","OBJECT_TYPE":"PAYLOAD","LAUNCH_DATE":"2019-11-11","EPOCH":"2022-12-11T19:06:13.010688","MEAN_MOTION_DDOT":"0.0000000000000","BSTAR":"0.00022969000000","GP_ID":"220094251"},{"ECCENTRICITY":"0.00015160","PERIAPSIS":"546.173","OBJECT_NAME":"STARLINK-1014","REF_FRAME":"TEME","INCLINATION":"53.0571","CENTER_NAME":"EARTH","TLE_LINE1":"1 44720U 19074H   22345.54807714  .00002995  00000-0  21989-3 0  9997","OBJECT_ID":"2019-074H","TIME_SYSTEM":"UTC","SITE":"AFETR","TLE_LINE2":"2 44720  53.0571 102.4318 0001516  71.6815 288.4339 15.06396905170278","EPHEMERIS_TYPE":"0","MEAN_MOTION":"15.06396905","ELEMENT_SET_NO":"999","APOAPSIS":"548.273","RA_OF_ASC_NODE":"102.4318","MEAN_MOTION_DOT":"0.00002995","NORAD_CAT_ID":"44720","PERIOD":"95.592","COUNTRY_CODE":"US","RCS_SIZE":"LARGE","REV_AT_EPOCH":"17027","ARG_OF_PERICENTER":"71.6815","MEAN_ANOMALY":"288.4339","GP_ID":"220095001","BSTAR":"0.00021989000000","LAUNCH_DATE":"2019-11-11","MEAN_MOTION_DDOT":"0.0000000000000","EPOCH":"2022-12-11T13:09:13.864896","OBJECT_TYPE":"PAYLOAD","SEMIMAJOR_AXIS":"6925.358","CLASSIFICATION_TYPE":"U","FILE":"3691993","DECAY_DATE":null,"MEAN_ELEMENT_THEORY":"SGP4"},{"RA_OF_ASC_NODE":"101.2959","PERIOD":"95.593","COUNTRY_CODE":"US","NORAD_CAT_ID":"44721","MEAN_MOTION_DOT":"0.00001249","ARG_OF_PERICENTER":"57.4608","REV_AT_EPOCH":"17030","RCS_SIZE":"LARGE","MEAN_ANOMALY":"302.6558","MEAN_MOTION_DDOT":"0.0000000000000","LAUNCH_DATE":"2019-11-11","BSTAR":"0.00010279000000","EPOCH":"2022-12-11T19:16:49.874592","GP_ID":"220093749","CLASSIFICATION_TYPE":"U","SEMIMAJOR_AXIS":"6925.370","OBJECT_TYPE":"PAYLOAD","MEAN_ELEMENT_THEORY":"SGP4","FILE":"3691993","DECAY_DATE":null,"ECCENTRICITY":"0.00018360","PERIAPSIS":"545.964","OBJECT_NAME":"STARLINK-1015","REF_FRAME":"TEME","INCLINATION":"53.0546","CENTER_NAME":"EARTH","OBJECT_ID":"2019-074J","TIME_SYSTEM":"UTC","TLE_LINE1":"1 44721U 19074J   22345.80335503  .00001249  00000-0  10279-3 0  9990","SITE":"AFETR","TLE_LINE2":"2 44721  53.0546 101.2959 0001836  57.4608 302.6558 15.06392956170304","MEAN_MOTION":"15.06392956","APOAPSIS":"548.507","ELEMENT_SET_NO":"999","EPHEMERIS_TYPE":"0"},{"OBJECT_NAME":"STARLINK-1016","ECCENTRICITY":"0.00017890","PERIAPSIS":"484.001","CENTER_NAME":"EARTH","REF_FRAME":"TEME","INCLINATION":"53.0543","OBJECT_ID":"2019-074K","TIME_SYSTEM":"UTC","TLE_LINE1":"1 44722U 19074K   22345.91668981 -.00165481  00000-0 -63158-2 0  9996","MEAN_MOTION":"15.26853145","ELEMENT_SET_NO":"999","APOAPSIS":"486.456","EPHEMERIS_TYPE":"0","SITE":"AFETR","TLE_LINE2":"2 44722  53.0543 100.0998 0001789  54.4538 170.2568 15.26853145  1305","PERIOD":"94.312","COUNTRY_CODE":"US","MEAN_MOTION_DOT":"-0.00165481","NORAD_CAT_ID":"44722","RA_OF_ASC_NODE":"100.0998","MEAN_ANOMALY":"170.2568","ARG_OF_PERICENTER":"54.4538","REV_AT_EPOCH":"130","RCS_SIZE":"LARGE","LAUNCH_DATE":"2019-11-11","EPOCH":"2022-12-11T22:00:01.999584","MEAN_MOTION_DDOT":"0.0000000000000","BSTAR":"-0.00631580000000","GP_ID":"220093500","MEAN_ELEMENT_THEORY":"SGP4","FILE":"3691993","DECAY_DATE":null,"SEMIMAJOR_AXIS":"6863.363","CLASSIFICATION_TYPE":"U","OBJECT_TYPE":"PAYLOAD"}];
